SIRION PATHFINDER-2     
1 43759U 18099B   26156.09085588  .00005474  00000+0  30112-3 0  9997
2 43759  97.4254 205.4362 0008178 352.2997   7.8108 15.14436976410795
CORVUS BC4              
1 43767U 18099K   26156.34569889  .00004735  00000+0  27618-3 0  9991
2 43767  97.4066 199.6730 0009349  50.5068 309.6988 15.12394430410612
M2 PATHFINDER           
1 45727U 20037E   26156.47549608  .00003280  00000+0  23775-3 0  9999
2 45727  97.8154 347.5750 0011425 186.8171 173.2901 15.04621937323736
NETSAT-4                
1 46504U 20068U   26156.00294781  .00019726  00000+0  44237-3 0  9993
2 46504  97.8608 163.2689 0005519  25.5578 334.5940 15.43442394313897
NETSAT-3                
1 46505U 20068V   26156.25932791  .00016765  00000+0  39169-3 0  9999
2 46505  97.8658 161.7772 0005825  41.3666 318.8020 15.42249360313849
NETSAT-1                
1 46506U 20068W   26156.78904683  .00014567  00000+0  43983-3 0  9994
2 46506  97.8752 156.8129 0006240  63.7765 296.4118 15.34361285313555
NETSAT-2                
1 46507U 20068X   26156.51259090  .00023994  00000+0  50166-3 0  9996
2 46507  97.8622 163.6717 0004962  58.5352 301.6380 15.45478514313932
GREENCUBE (IO-117)      
1 53109U 22080E   26152.46502029 -.00000003  00000+0  00000+0 0  9996
2 53109  70.1435 303.7143 0008869 293.3663  66.6064  6.42583280 91055
SITRO-AIS 5 (KATYS)     
1 57176U 23091L   26157.20857806  .00016204  00000+0  57268-3 0  9991
2 57176  97.5060 221.0056 0012591 137.5319 222.6897 15.29198907162666
SITRO-AIS 6 (CHIRKIN)   
1 57192U 23091AC  26157.16235597  .00013542  00000+0  53229-3 0  9996
2 57192  97.5068 220.1360 0012859 140.5376 219.6801 15.25722204162608
SITRO-AIS 8 (ANOKHIN)   
1 57193U 23091AD  26157.17930595  .00019708  00000+0  64149-3 0  9991
2 57193  97.5057 222.5202 0011787 133.7062 226.5158 15.31834389162767
SITRO-AIS 7 (FARTUSHNIY)
1 57194U 23091AE  26157.16326635  .00013305  00000+0  52789-3 0  9999
2 57194  97.5066 219.9677 0012678 141.4092 218.8054 15.25415660162593
SITRO-AIS 10 (BURDAEV)  
1 57199U 23091AK  26157.12664851  .00028440  00000+0  75589-3 0  9994
2 57199  97.5080 227.4082 0007952 112.2425 247.9664 15.38184355163064
SITRO-AIS 9 (SHCHUKIN)  
1 57201U 23091AM  26157.14958384  .00027649  00000+0  74632-3 0  9995
2 57201  97.5078 227.1702 0008164 112.7857 247.4251 15.37709855163054
SITRO-AIS 12 (SMIRENNIY)
1 57204U 23091AQ  26157.14228692  .00027615  00000+0  73855-3 0  9999
2 57204  97.5092 227.6232 0007838 107.6552 252.5549 15.37998679163071
SITRO-AIS 11 (SHEFFER)  
1 57208U 23091AU  26157.09367846  .00028513  00000+0  75234-3 0  9993
2 57208  97.5089 227.8129 0007716 107.6812 252.5275 15.38410329163081
SITRO-AIS 25            
1 59066U 24039R   26157.25419659  .00004437  00000+0  34582-3 0  9998
2 59066  95.3907 227.5798 0144941   7.1388 353.1854 14.93452690123098
SITRO-AIS 26            
1 59067U 24039S   26157.25408198  .00004343  00000+0  34013-3 0  9990
2 59067  95.3907 227.4797 0145283   7.7063 352.6346 14.93249412123088
SITRO-AIS 27            
1 59068U 24039T   26157.29437672  .00003927  00000+0  30515-3 0  9994
2 59068  95.3912 227.7741 0144333   6.2715 354.0273 14.93670156123112
SITRO-AIS 28            
1 59071U 24039U   26157.27206854  .00004614  00000+0  35788-3 0  9993
2 59071  95.3912 227.8053 0144168   6.1895 354.1068 14.93703284123119
GRBBETA                 
1 60237U 24128C   26156.87079549  .00005433  00000+0  37239-3 0  9995
2 60237  61.9900 255.9673 0042125 132.3228 228.1447 15.06558818104568
OOV-CUBE (TUBSAT-30)    
1 60240U 24128F   26156.87674825  .00003150  00000+0  24502-3 0  9990
2 60240  61.9953 265.0104 0046034 131.2422 229.2650 15.02723262104413
ROBUSTA-3A (MEDITERRAN*)
1 60243U 24128J   26156.95551527  .00010927  00000+0  63937-3 0  9990
2 60243  61.9861 247.9591 0042900 125.6652 234.8449 15.11532916104729
LASARSAT                
1 62391U 24247Q   26154.92379714  .00036882  00000+0  75515-3 0  9992
2 62391  44.9754 336.7002 0008047 258.6055 101.3931 15.45494859 81266
CROCUBE                 
1 62394U 24247T   26156.93863825  .00053552  00000+0  10201-2 0  9992
2 62394  44.9728 322.9029 0008071 272.3231  87.6735 15.47436453 81606
KNACKSAT-2              
1 67683U 98067XZ  26156.11067754  .00054547  00000+0  69168-3 0  9998
2 67683  51.6316 355.1703 0010742 163.6532 196.4809 15.58840087 18392
