OBJECT_NAME,OBJECT_ID,EPOCH,MEAN_MOTION,ECCENTRICITY,INCLINATION,RA_OF_ASC_NODE,ARG_OF_PERICENTER,MEAN_ANOMALY,EPHEMERIS_TYPE,CLASSIFICATION_TYPE,NORAD_CAT_ID,ELEMENT_SET_NO,REV_AT_EPOCH,BSTAR,MEAN_MOTION_DOT,MEAN_MOTION_DDOT
SIRION PATHFINDER-2,2018-099B,2026-06-05T02:10:49.948032,15.14436976,.0008178,97.4254,205.4362,352.2997,7.8108,0,U,43759,999,41079,.30112E-3,.5474E-4,0
CORVUS BC4,2018-099K,2026-06-05T08:17:48.384096,15.12394430,.00093495,97.4066,199.6730,50.5068,309.6988,0,U,43767,999,41061,.27618085E-3,.4735E-4,0
M2 PATHFINDER,2020-037E,2026-06-05T11:24:42.861312,15.04621937,.00114252,97.8154,347.5750,186.8171,173.2901,0,U,45727,999,32373,.2377521E-3,.328E-4,0
NETSAT-4,2020-068U,2026-06-05T00:04:14.690784,15.43442394,.0005519,97.8608,163.2689,25.5578,334.5940,0,U,46504,999,31389,.44236761E-3,.19726E-3,0
NETSAT-3,2020-068V,2026-06-05T06:13:25.931424,15.42249360,.0005825,97.8658,161.7772,41.3666,318.8020,0,U,46505,999,31384,.39169E-3,.16765E-3,0
NETSAT-1,2020-068W,2026-06-05T18:56:13.646112,15.34361285,.000624,97.8752,156.8129,63.7765,296.4118,0,U,46506,999,31355,.43982966E-3,.14567E-3,0
NETSAT-2,2020-068X,2026-06-05T12:18:07.853760,15.45478514,.00049625,97.8622,163.6717,58.5352,301.6380,0,U,46507,999,31393,.50165882E-3,.23994E-3,0
GREENCUBE (IO-117),2022-080E,2026-06-01T11:09:37.753056,6.42583280,.00088692,70.1435,303.7143,293.3663,66.6064,0,U,53109,999,9105,0,-.3E-7,0
SITRO-AIS 5 (KATYS),2023-091L,2026-06-06T05:00:21.144384,15.29198907,.00125916,97.5060,221.0056,137.5319,222.6897,0,U,57176,999,16266,.5726776E-3,.16204E-3,0
SITRO-AIS 6 (CHIRKIN),2023-091AC,2026-06-06T03:53:47.555808,15.25722204,.00128593,97.5068,220.1360,140.5376,219.6801,0,U,57192,999,16260,.53229197E-3,.13542E-3,0
SITRO-AIS 8 (ANOKHIN),2023-091AD,2026-06-06T04:18:12.034080,15.31834389,.00117876,97.5057,222.5202,133.7062,226.5158,0,U,57193,999,16276,.64149304E-3,.19708E-3,0
SITRO-AIS 7 (FARTUSHNIY),2023-091AE,2026-06-06T03:55:06.212640,15.25415660,.00126785,97.5066,219.9677,141.4092,218.8054,0,U,57194,999,16259,.52788757E-3,.13305E-3,0
SITRO-AIS 10 (BURDAEV),2023-091AK,2026-06-06T03:02:22.431264,15.38184355,.00079525,97.5080,227.4082,112.2425,247.9664,0,U,57199,999,16306,.75588982E-3,.2844E-3,0
SITRO-AIS 9 (SHCHUKIN),2023-091AM,2026-06-06T03:35:24.043776,15.37709855,.00081643,97.5078,227.1702,112.7857,247.4251,0,U,57201,999,16305,.74632242E-3,.27649E-3,0
SITRO-AIS 12 (SMIRENNIY),2023-091AQ,2026-06-06T03:24:53.589888,15.37998679,.00078388,97.5092,227.6232,107.6552,252.5549,0,U,57204,999,16307,.73854959E-3,.27615E-3,0
SITRO-AIS 11 (SHEFFER),2023-091AU,2026-06-06T02:14:53.818944,15.38410329,.00077162,97.5089,227.8129,107.6812,252.5275,0,U,57208,999,16308,.75234404E-3,.28513E-3,0
SITRO-AIS 25,2024-039R,2026-06-06T06:06:02.585376,14.93452690,.01449414,95.3907,227.5798,7.1388,353.1854,0,U,59066,999,12309,.34582099E-3,.4437E-4,0
SITRO-AIS 26,2024-039S,2026-06-06T06:05:52.683072,14.93249412,.0145283,95.3907,227.4797,7.7063,352.6346,0,U,59067,999,12308,.34013303E-3,.4343E-4,0
SITRO-AIS 27,2024-039T,2026-06-06T07:03:54.148608,14.93670156,.01443335,95.3912,227.7741,6.2715,354.0273,0,U,59068,999,12311,.30514843E-3,.3927E-4,0
SITRO-AIS 28,2024-039U,2026-06-06T06:31:46.721856,14.93703284,.01441687,95.3912,227.8053,6.1895,354.1068,0,U,59071,999,12311,.35787618E-3,.4614E-4,0
GRBBETA,2024-128C,2026-06-05T20:53:56.730336,15.06558818,.00421256,61.9900,255.9673,132.3228,228.1447,0,U,60237,999,10456,.37239168E-3,.5433E-4,0
OOV-CUBE (TUBSAT-30),2024-128F,2026-06-05T21:02:31.048800,15.02723262,.00460346,61.9953,265.0104,131.2422,229.2650,0,U,60240,999,10441,.24502362E-3,.315E-4,0
ROBUSTA-3A (MEDITERRANEE),2024-128J,2026-06-05T22:55:56.519328,15.11532916,.00429009,61.9861,247.9591,125.6652,234.8449,0,U,60243,999,10472,.63936776E-3,.10927E-3,0
LASARSAT,2024-247Q,2026-06-03T22:10:16.072896,15.45494859,.00080478,44.9754,336.7002,258.6055,101.3931,0,U,62391,999,8126,.75515127E-3,.36882E-3,0
CROCUBE,2024-247T,2026-06-05T22:31:38.344800,15.47436453,.00080714,44.9728,322.9029,272.3231,87.6735,0,U,62394,999,8160,.102014E-2,.53552E-3,0
KNACKSAT-2,1998-067XZ,2026-06-05T02:39:22.539456,15.58840087,.00107425,51.6316,355.1703,163.6532,196.4809,0,U,67683,999,1839,.6916844E-3,.54547E-3,0
